{
    "links": {
        "self": "http://www.neowsapp.com/rest/v1/neo/3787062?api_key=iIulBulltgU6a56xZRHN4H3l9WmuAYTsLGpBGhQ2"
    },
    "id": "3787062",
    "neo_reference_id": "3787062",
    "name": "(2017 TT6)",
    "designation": "2017 TT6",
    "nasa_jpl_url": "http://ssd.jpl.nasa.gov/sbdb.cgi?sstr=3787062",
    "absolute_magnitude_h": 24.2,
    "estimated_diameter": {
        "kilometers": {
            "estimated_diameter_min": 0.0384197891,
            "estimated_diameter_max": 0.0859092601
        },
        "meters": {
            "estimated_diameter_min": 38.4197891064,
            "estimated_diameter_max": 85.9092601232
        },
        "miles": {
            "estimated_diameter_min": 0.0238729428,
            "estimated_diameter_max": 0.0533815229
        },
        "feet": {
            "estimated_diameter_min": 126.0491808919,
            "estimated_diameter_max": 281.8545369825
        }
    },
    "is_potentially_hazardous_asteroid": false,
    "close_approach_data": [
        {
            "close_approach_date": "2011-10-20",
            "close_approach_date_full": "2011-Oct-20 18:03",
            "epoch_date_close_approach": 1319133780000,
            "relative_velocity": {
                "kilometers_per_second": "17.1907027222",
                "kilometers_per_hour": "61886.5297999492",
                "miles_per_hour": "38453.8829193073"
            },
            "miss_distance": {
                "astronomical": "0.3119755538",
                "lunar": "121.3584904282",
                "kilometers": "46670878.340550406",
                "miles": "28999939.0557753628"
            },
            "orbiting_body": "Earth"
        },
        {
            "close_approach_date": "2014-10-18",
            "close_approach_date_full": "2014-Oct-18 11:53",
            "epoch_date_close_approach": 1413633180000,
            "relative_velocity": {
                "kilometers_per_second": "15.4068069423",
                "kilometers_per_hour": "55464.5049921734",
                "miles_per_hour": "34463.4864491647"
            },
            "miss_distance": {
                "astronomical": "0.1701573551",
                "lunar": "66.1912111339",
                "kilometers": "25455177.887793637",
                "miles": "15817114.0901487106"
            },
            "orbiting_body": "Earth"
        },
        {
            "close_approach_date": "2017-10-16",
            "close_approach_date_full": "2017-Oct-16 17:11",
            "epoch_date_close_approach": 1508173860000,
            "relative_velocity": {
                "kilometers_per_second": "14.6346293776",
                "kilometers_per_hour": "52684.6657594486",
                "miles_per_hour": "32736.2024548085"
            },
            "miss_distance": {
                "astronomical": "0.1239685376",
                "lunar": "48.2237611264",
                "kilometers": "18545429.171974912",
                "miles": "11523595.3312493056"
            },
            "orbiting_body": "Earth"
        },
        {
            "close_approach_date": "2020-10-15",
            "close_approach_date_full": "2020-Oct-15 12:31",
            "epoch_date_close_approach": 1602765060000,
            "relative_velocity": {
                "kilometers_per_second": "14.9102634848",
                "kilometers_per_hour": "53676.9485451612",
                "miles_per_hour": "33352.7683890753"
            },
            "miss_distance": {
                "astronomical": "0.2353698791",
                "lunar": "91.5588829699",
                "kilometers": "35210832.575517517",
                "miles": "21878996.8198630546"
            },
            "orbiting_body": "Earth"
        },
        {
            "close_approach_date": "2023-10-16",
            "close_approach_date_full": "2023-Oct-16 05:55",
            "epoch_date_close_approach": 1697435700000,
            "relative_velocity": {
                "kilometers_per_second": "16.0885813064",
                "kilometers_per_hour": "57918.8927029435",
                "miles_per_hour": "35988.5475242262"
            },
            "miss_distance": {
                "astronomical": "0.3868251693",
                "lunar": "150.4749908577",
                "kilometers": "57868221.389669391",
                "miles": "35957645.3933679558"
            },
            "orbiting_body": "Earth"
        }
    ],
    "orbital_data": {
        "orbit_id": "4",
        "orbit_determination_date": "2017-10-31 06:19:24",
        "first_observation_date": "2017-10-15",
        "last_observation_date": "2017-10-30",
        "data_arc_in_days": 15,
        "observations_used": 29,
        "orbit_uncertainty": "8",
        "minimum_orbit_intersection": ".117521",
        "jupiter_tisserand_invariant": "4.867",
        "epoch_osculation": "2458045.5",
        "eccentricity": ".1515128003129423",
        "semi_major_axis": "1.302474245375109",
        "inclination": "28.16542270332631",
        "ascending_node_longitude": "25.20400390012894",
        "orbital_period": "542.940381300186",
        "perihelion_distance": "1.10513272512284",
        "perihelion_argument": "339.1498958422091",
        "aphelion_distance": "1.499815765627378",
        "perihelion_time": "2458020.019919352486",
        "mean_anomaly": "16.89472610443665",
        "mean_motion": ".6630562256907537",
        "equinox": "J2000",
        "orbit_class": {
            "orbit_class_type": "AMO",
            "orbit_class_description": "Near-Earth asteroid orbits similar to that of 1221 Amor",
            "orbit_class_range": "1.017 AU < q (perihelion) < 1.3 AU"
        }
    },
    "is_sentry_object": false
}